{
    "links": {
        "self": "http://www.neowsapp.com/rest/v1/neo/54017158?api_key=iIulBulltgU6a56xZRHN4H3l9WmuAYTsLGpBGhQ2"
    },
    "id": "54017158",
    "neo_reference_id": "54017158",
    "name": "(2020 KN2)",
    "designation": "2020 KN2",
    "nasa_jpl_url": "http://ssd.jpl.nasa.gov/sbdb.cgi?sstr=54017158",
    "absolute_magnitude_h": 26.37,
    "estimated_diameter": {
        "kilometers": {
            "estimated_diameter_min": 0.0141434375,
            "estimated_diameter_max": 0.0316256878
        },
        "meters": {
            "estimated_diameter_min": 14.1434375313,
            "estimated_diameter_max": 31.6256877555
        },
        "miles": {
            "estimated_diameter_min": 0.0087883219,
            "estimated_diameter_max": 0.0196512852
        },
        "feet": {
            "estimated_diameter_min": 46.4023555902,
            "estimated_diameter_max": 103.7588214159
        }
    },
    "is_potentially_hazardous_asteroid": false,
    "close_approach_data": [
        {
            "close_approach_date": "2020-06-02",
            "close_approach_date_full": "2020-Jun-02 02:38",
            "epoch_date_close_approach": 1591065480000,
            "relative_velocity": {
                "kilometers_per_second": "8.4327614053",
                "kilometers_per_hour": "30357.9410590828",
                "miles_per_hour": "18863.2439875173"
            },
            "miss_distance": {
                "astronomical": "0.0148630271",
                "lunar": "5.7817175419",
                "kilometers": "2223477.195912277",
                "miles": "1381604.6636803426"
            },
            "orbiting_body": "Earth"
        },
        {
            "close_approach_date": "2020-10-01",
            "close_approach_date_full": "2020-Oct-01 14:38",
            "epoch_date_close_approach": 1601563080000,
            "relative_velocity": {
                "kilometers_per_second": "10.0148847372",
                "kilometers_per_hour": "36053.5850538433",
                "miles_per_hour": "22402.295668595"
            },
            "miss_distance": {
                "astronomical": "0.0154477093",
                "lunar": "6.0091589177",
                "kilometers": "2310944.407659191",
                "miles": "1435954.2688351958"
            },
            "orbiting_body": "Mars"
        }
    ],
    "orbital_data": {
        "orbit_id": "11",
        "orbit_determination_date": "2020-08-19 08:25:26",
        "first_observation_date": "2020-05-14",
        "last_observation_date": "2020-06-03",
        "data_arc_in_days": 20,
        "observations_used": 76,
        "orbit_uncertainty": "7",
        "minimum_orbit_intersection": ".00099874",
        "jupiter_tisserand_invariant": "3.952",
        "epoch_osculation": "2459000.5",
        "eccentricity": ".4545317773115418",
        "semi_major_axis": "1.789651692328925",
        "inclination": ".4947215465870414",
        "ascending_node_longitude": "82.25173985867994",
        "orbital_period": "874.482655359164",
        "perihelion_distance": ".9761981278460502",
        "perihelion_argument": "201.700278440908",
        "aphelion_distance": "2.6031052568118",
        "perihelion_time": "2459029.034581985653",
        "mean_anomaly": "348.2531123380417",
        "mean_motion": ".411671972901672",
        "equinox": "J2000",
        "orbit_class": {
            "orbit_class_type": "APO",
            "orbit_class_description": "Near-Earth asteroid orbits which cross the Earth’s orbit similar to that of 1862 Apollo",
            "orbit_class_range": "a (semi-major axis) > 1.0 AU; q (perihelion) < 1.017 AU"
        }
    },
    "is_sentry_object": false
}